{
    "links": {
        "self": "http://www.neowsapp.com/rest/v1/neo/3690384?api_key=iIulBulltgU6a56xZRHN4H3l9WmuAYTsLGpBGhQ2"
    },
    "id": "3690384",
    "neo_reference_id": "3690384",
    "name": "(2014 SE145)",
    "designation": "2014 SE145",
    "nasa_jpl_url": "http://ssd.jpl.nasa.gov/sbdb.cgi?sstr=3690384",
    "absolute_magnitude_h": 27.2,
    "estimated_diameter": {
        "kilometers": {
            "estimated_diameter_min": 0.0096506147,
            "estimated_diameter_max": 0.0215794305
        },
        "meters": {
            "estimated_diameter_min": 9.6506146958,
            "estimated_diameter_max": 21.5794304844
        },
        "miles": {
            "estimated_diameter_min": 0.0059966121,
            "estimated_diameter_max": 0.0134088323
        },
        "feet": {
            "estimated_diameter_min": 31.6621227185,
            "estimated_diameter_max": 70.7986587106
        }
    },
    "is_potentially_hazardous_asteroid": false,
    "close_approach_data": [
        {
            "close_approach_date": "2014-09-22",
            "close_approach_date_full": "2014-Sep-22 14:12",
            "epoch_date_close_approach": 1411395120000,
            "relative_velocity": {
                "kilometers_per_second": "8.8098391764",
                "kilometers_per_hour": "31715.4210350529",
                "miles_per_hour": "19706.7292536972"
            },
            "miss_distance": {
                "astronomical": "0.009887362",
                "lunar": "3.846183818",
                "kilometers": "1479128.29511894",
                "miles": "919087.703923772"
            },
            "orbiting_body": "Earth"
        },
        {
            "close_approach_date": "2044-11-06",
            "close_approach_date_full": "2044-Nov-06 12:06",
            "epoch_date_close_approach": 2362046760000,
            "relative_velocity": {
                "kilometers_per_second": "19.6612164724",
                "kilometers_per_hour": "70780.3793006144",
                "miles_per_hour": "43980.1751270957"
            },
            "miss_distance": {
                "astronomical": "0.3934017455",
                "lunar": "153.0332789995",
                "kilometers": "58852063.181082085",
                "miles": "36568976.334759373"
            },
            "orbiting_body": "Earth"
        }
    ],
    "orbital_data": {
        "orbit_id": "5",
        "orbit_determination_date": "2017-04-06 08:38:30",
        "first_observation_date": "2014-09-22",
        "last_observation_date": "2014-09-25",
        "data_arc_in_days": 3,
        "observations_used": 15,
        "orbit_uncertainty": "7",
        "minimum_orbit_intersection": ".00953693",
        "jupiter_tisserand_invariant": "3.416",
        "epoch_osculation": "2459000.5",
        "eccentricity": ".5473238468483502",
        "semi_major_axis": "2.231650507106607",
        "inclination": "8.409070385999698",
        "ascending_node_longitude": "180.3935345079987",
        "orbital_period": "1217.692692189468",
        "perihelion_distance": "1.010214966735947",
        "perihelion_argument": "172.9405874469235",
        "aphelion_distance": "3.453086047477266",
        "perihelion_time": "2459357.328575218474",
        "mean_anomaly": "254.5068095566242",
        "mean_motion": ".2956410942671449",
        "equinox": "J2000",
        "orbit_class": {
            "orbit_class_type": "APO",
            "orbit_class_description": "Near-Earth asteroid orbits which cross the Earth’s orbit similar to that of 1862 Apollo",
            "orbit_class_range": "a (semi-major axis) > 1.0 AU; q (perihelion) < 1.017 AU"
        }
    },
    "is_sentry_object": false
}